GOES 1 (SMS-C)          
1 08366U 75100A   25317.50511868 -.00000098  00000+0  00000+0 0  9994
2 08366   5.1601 280.1510 0006033 332.7501 237.9123  1.00226407182907
GOES 2                  
1 10061U 77048A   25317.83169330 -.00000175  00000+0  00000+0 0  9997
2 10061   6.9354 295.1345 0011835  38.8456 122.2476  0.99395409 44132
GOES 3                  
1 10953U 78062A   25317.75422947 -.00000263  00000+0  00000+0 0  9999
2 10953   7.3920 300.8257 0003300 304.0239 240.9802  0.99366029126393
GOES 4                  
1 11964U 80074A   25317.74017278 -.00000165  00000+0  00000+0 0  9995
2 11964   8.4567 304.5472 0029807 103.2751 274.1816  0.99233384125304
GOES 5                  
1 12472U 81049A   25317.21070586 -.00000289  00000+0  00000+0 0  9993
2 12472   9.7484 317.0614 0004846 299.9469 161.0557  1.00244431120683
GOES 6                  
1 14050U 83041A   25317.50815204 -.00000213  00000+0  00000+0 0  9994
2 14050  10.5373 322.6116 0004013 259.6830 284.9352  1.00226949213858
GOES 7                  
1 17561U 87022A   25317.74277279  .00000012  00000+0  00000+0 0  9993
2 17561  13.1242 339.1476 0001391 339.6593  17.0089  0.99904525124803
GOES 8                  
1 23051U 94022A   25316.88299597 -.00000211  00000+0  00000+0 0  9995
2 23051  14.2446  15.3060 0001044  76.6665 275.0669  0.98907609121988
GOES 9                  
1 23581U 95025A   25317.46691771 -.00000279  00000+0  00000+0 0  9996
2 23581  13.7702  16.1078 0008017 191.0109 161.7962  0.98802352110620
GOES 10                 
1 24786U 97019A   25317.36017066 -.00000074  00000+0  00000+0 0  9990
2 24786  12.8725  22.6396 0032681 231.8715 122.7205  0.99126168103925
GOES 11                 
1 26352U 00022A   25316.82371564  .00000070  00000+0  00000+0 0  9990
2 26352  11.3433  48.5133 0006248 213.6796 144.5772  0.99039780 50328
GOES 12                 
1 26871U 01031A   25316.89062269  .00000019  00000+0  00000+0 0  9996
2 26871  11.7904  39.0720 0006519 269.8184  99.7455  0.99136826 88625
EWS-G1 (GOES 13)        
1 29155U 06018A   25317.81819662 -.00000169  00000+0  00000+0 0  9991
2 29155   3.9725  79.0387 0059749 268.0344 120.7367  0.98787262 41128
GOES 14                 
1 35491U 09033A   25317.64690618 -.00000067  00000+0  00000+0 0  9997
2 35491   1.1222  85.7319 0004088 140.1466 311.5925  1.00272603  4435
EWS-G2 (GOES 15)        
1 36411U 10008A   25316.62335794  .00000031  00000+0  00000+0 0  9992
2 36411   0.7366  85.8862 0006464 161.0094  91.3189  1.00277189 57465
GOES 16                 
1 41866U 16071A   25317.50494536 -.00000092  00000+0  00000+0 0  9994
2 41866   0.0746  84.1652 0003143 163.9262 241.8936  1.00271624 32944
GOES 17                 
1 43226U 18022A   25317.79329977 -.00000182  00000+0  00000+0 0  9991
2 43226   0.3828  89.7100 0003262 174.3771 345.1748  1.00271645 28264
GOES 18                 
1 51850U 22021A   25317.71259992  .00000096  00000+0  00000+0 0  9991
2 51850   0.0459  94.7087 0000774 191.0356 246.8829  1.00272034  4436
GOES 19                 
1 60133U 24119A   25317.79598645 -.00000248  00000+0  00000+0 0  9994
2 60133   0.0200 136.2371 0001141 153.2890 335.0033  1.00272312  4802
